CCSDS_OMM_VERS = 2.0
CREATION_DATE  = 
ORIGINATOR     = 

OBJECT_NAME    = STARLINK-36877
OBJECT_ID      = 2026-035T
CENTER_NAME    = EARTH
REF_FRAME      = TEME
TIME_SYSTEM    = UTC
MEAN_ELEMENT_THEORY = SGP/SGP4

EPOCH          = 2026-03-02T04:00:01.999584
MEAN_MOTION    = 16.04109489
ECCENTRICITY   = .0001002
INCLINATION    = 97.2780
RA_OF_ASC_NODE = 352.9037
ARG_OF_PERICENTER = 86.4488
MEAN_ANOMALY   = 149.6580

EPHEMERIS_TYPE = 0
CLASSIFICATION_TYPE = U
NORAD_CAT_ID   = 67896
ELEMENT_SET_NO = 999
REV_AT_EPOCH   = 254
BSTAR          = -.12307E-2
MEAN_MOTION_DOT = -.790578E-2
MEAN_MOTION_DDOT = .22232E-3

CCSDS_OMM_VERS = 2.0
CREATION_DATE  = 
ORIGINATOR     = 

OBJECT_NAME    = STARLINK-36870
OBJECT_ID      = 2026-035U
CENTER_NAME    = EARTH
REF_FRAME      = TEME
TIME_SYSTEM    = UTC
MEAN_ELEMENT_THEORY = SGP/SGP4

EPOCH          = 2026-03-02T04:00:01.999584
MEAN_MOTION    = 16.04518824
ECCENTRICITY   = .0000887
INCLINATION    = 97.2775
RA_OF_ASC_NODE = 352.9078
ARG_OF_PERICENTER = 105.9839
MEAN_ANOMALY   = 140.0764

EPHEMERIS_TYPE = 0
CLASSIFICATION_TYPE = U
NORAD_CAT_ID   = 67897
ELEMENT_SET_NO = 999
REV_AT_EPOCH   = 254
BSTAR          = -.1152E-2
MEAN_MOTION_DOT = -.758559E-2
MEAN_MOTION_DDOT = .2069E-3

CCSDS_OMM_VERS = 2.0
CREATION_DATE  = 
ORIGINATOR     = 

OBJECT_NAME    = STARLINK-36810
OBJECT_ID      = 2026-035V
CENTER_NAME    = EARTH
REF_FRAME      = TEME
TIME_SYSTEM    = UTC
MEAN_ELEMENT_THEORY = SGP/SGP4

EPOCH          = 2026-03-02T04:00:01.999584
MEAN_MOTION    = 16.04635486
ECCENTRICITY   = .0000954
INCLINATION    = 97.2773
RA_OF_ASC_NODE = 352.9091
ARG_OF_PERICENTER = 101.8615
MEAN_ANOMALY   = 146.9627

EPHEMERIS_TYPE = 0
CLASSIFICATION_TYPE = U
NORAD_CAT_ID   = 67898
ELEMENT_SET_NO = 999
REV_AT_EPOCH   = 254
BSTAR          = -.1189E-2
MEAN_MOTION_DOT = -.788214E-2
MEAN_MOTION_DDOT = .2225E-3

CCSDS_OMM_VERS = 2.0
CREATION_DATE  = 
ORIGINATOR     = 

OBJECT_NAME    = STARLINK-36878
OBJECT_ID      = 2026-035W
CENTER_NAME    = EARTH
REF_FRAME      = TEME
TIME_SYSTEM    = UTC
MEAN_ELEMENT_THEORY = SGP/SGP4

EPOCH          = 2026-03-02T04:00:01.999584
MEAN_MOTION    = 16.04860919
ECCENTRICITY   = .0000991
INCLINATION    = 97.2770
RA_OF_ASC_NODE = 352.9114
ARG_OF_PERICENTER = 109.8028
MEAN_ANOMALY   = 144.5000

EPHEMERIS_TYPE = 0
CLASSIFICATION_TYPE = U
NORAD_CAT_ID   = 67899
ELEMENT_SET_NO = 999
REV_AT_EPOCH   = 254
BSTAR          = -.11385E-2
MEAN_MOTION_DOT = -.765224E-2
MEAN_MOTION_DDOT = .21117E-3

CCSDS_OMM_VERS = 2.0
CREATION_DATE  = 
ORIGINATOR     = 

OBJECT_NAME    = STARLINK-36361
OBJECT_ID      = 2026-035X
CENTER_NAME    = EARTH
REF_FRAME      = TEME
TIME_SYSTEM    = UTC
MEAN_ELEMENT_THEORY = SGP/SGP4

EPOCH          = 2026-03-02T04:00:01.999584
MEAN_MOTION    = 16.04998673
ECCENTRICITY   = .0000923
INCLINATION    = 97.2769
RA_OF_ASC_NODE = 352.9129
ARG_OF_PERICENTER = 95.2965
MEAN_ANOMALY   = 162.0082

EPHEMERIS_TYPE = 0
CLASSIFICATION_TYPE = U
NORAD_CAT_ID   = 67900
ELEMENT_SET_NO = 999
REV_AT_EPOCH   = 254
BSTAR          = -.1152E-2
MEAN_MOTION_DOT = -.780614E-2
MEAN_MOTION_DDOT = .2195E-3

CCSDS_OMM_VERS = 2.0
CREATION_DATE  = 
ORIGINATOR     = 

OBJECT_NAME    = STARLINK-36336
OBJECT_ID      = 2026-035Y
CENTER_NAME    = EARTH
REF_FRAME      = TEME
TIME_SYSTEM    = UTC
MEAN_ELEMENT_THEORY = SGP/SGP4

EPOCH          = 2026-03-02T04:00:01.999584
MEAN_MOTION    = 16.05394958
ECCENTRICITY   = .0000885
INCLINATION    = 97.2769
RA_OF_ASC_NODE = 352.9168
ARG_OF_PERICENTER = 100.8327
MEAN_ANOMALY   = 165.5602

EPHEMERIS_TYPE = 0
CLASSIFICATION_TYPE = U
NORAD_CAT_ID   = 67901
ELEMENT_SET_NO = 999
REV_AT_EPOCH   = 259
BSTAR          = -.10895E-2
MEAN_MOTION_DOT = -.756394E-2
MEAN_MOTION_DDOT = .20802E-3

CCSDS_OMM_VERS = 2.0
CREATION_DATE  = 
ORIGINATOR     = 

OBJECT_NAME    = STARLINK-36876
OBJECT_ID      = 2026-035Z
CENTER_NAME    = EARTH
REF_FRAME      = TEME
TIME_SYSTEM    = UTC
MEAN_ELEMENT_THEORY = SGP/SGP4

EPOCH          = 2026-03-02T04:00:01.999584
MEAN_MOTION    = 16.05109754
ECCENTRICITY   = .0000936
INCLINATION    = 97.2773
RA_OF_ASC_NODE = 352.9146
ARG_OF_PERICENTER = 109.5758
MEAN_ANOMALY   = 150.3418

EPHEMERIS_TYPE = 0
CLASSIFICATION_TYPE = U
NORAD_CAT_ID   = 67902
ELEMENT_SET_NO = 999
REV_AT_EPOCH   = 254
BSTAR          = -.11317E-2
MEAN_MOTION_DOT = -.77207E-2
MEAN_MOTION_DDOT = .21535E-3

CCSDS_OMM_VERS = 2.0
CREATION_DATE  = 
ORIGINATOR     = 

OBJECT_NAME    = STARLINK-36257
OBJECT_ID      = 2026-035AA
CENTER_NAME    = EARTH
REF_FRAME      = TEME
TIME_SYSTEM    = UTC
MEAN_ELEMENT_THEORY = SGP/SGP4

EPOCH          = 2026-03-02T04:00:01.999584
MEAN_MOTION    = 16.05230269
ECCENTRICITY   = .0000888
INCLINATION    = 97.2769
RA_OF_ASC_NODE = 352.9150
ARG_OF_PERICENTER = 102.2175
MEAN_ANOMALY   = 160.4450

EPHEMERIS_TYPE = 0
CLASSIFICATION_TYPE = U
NORAD_CAT_ID   = 67903
ELEMENT_SET_NO = 999
REV_AT_EPOCH   = 259
BSTAR          = -.11168E-2
MEAN_MOTION_DOT = -.76755E-2
MEAN_MOTION_DDOT = .21333E-3

CCSDS_OMM_VERS = 2.0
CREATION_DATE  = 
ORIGINATOR     = 

OBJECT_NAME    = STARLINK-36814
OBJECT_ID      = 2026-036A
CENTER_NAME    = EARTH
REF_FRAME      = TEME
TIME_SYSTEM    = UTC
MEAN_ELEMENT_THEORY = SGP/SGP4

EPOCH          = 2026-03-02T04:00:01.999584
MEAN_MOTION    = 15.87034420
ECCENTRICITY   = .0001721
INCLINATION    = 42.9953
RA_OF_ASC_NODE = 295.9517
ARG_OF_PERICENTER = 274.9825
MEAN_ANOMALY   = 247.3372

EPHEMERIS_TYPE = 0
CLASSIFICATION_TYPE = U
NORAD_CAT_ID   = 67904
ELEMENT_SET_NO = 999
REV_AT_EPOCH   = 243
BSTAR          = -.63786E-2
MEAN_MOTION_DOT = -.15113E-1
MEAN_MOTION_DDOT = 0

CCSDS_OMM_VERS = 2.0
CREATION_DATE  = 
ORIGINATOR     = 

OBJECT_NAME    = STARLINK-36729
OBJECT_ID      = 2026-036B
CENTER_NAME    = EARTH
REF_FRAME      = TEME
TIME_SYSTEM    = UTC
MEAN_ELEMENT_THEORY = SGP/SGP4

EPOCH          = 2026-03-02T04:00:01.999584
MEAN_MOTION    = 15.87236411
ECCENTRICITY   = .0001678
INCLINATION    = 42.9949
RA_OF_ASC_NODE = 295.9435
ARG_OF_PERICENTER = 276.0032
MEAN_ANOMALY   = 249.3864

EPHEMERIS_TYPE = 0
CLASSIFICATION_TYPE = U
NORAD_CAT_ID   = 67905
ELEMENT_SET_NO = 999
REV_AT_EPOCH   = 243
BSTAR          = -.62636E-2
MEAN_MOTION_DOT = -.1500501E-1
MEAN_MOTION_DDOT = 0

CCSDS_OMM_VERS = 2.0
CREATION_DATE  = 
ORIGINATOR     = 

OBJECT_NAME    = STARLINK-36763
OBJECT_ID      = 2026-036C
CENTER_NAME    = EARTH
REF_FRAME      = TEME
TIME_SYSTEM    = UTC
MEAN_ELEMENT_THEORY = SGP/SGP4

EPOCH          = 2026-03-02T04:00:01.999584
MEAN_MOTION    = 15.87424431
ECCENTRICITY   = .0001644
INCLINATION    = 42.9950
RA_OF_ASC_NODE = 295.9355
ARG_OF_PERICENTER = 280.4818
MEAN_ANOMALY   = 248.0754

EPHEMERIS_TYPE = 0
CLASSIFICATION_TYPE = U
NORAD_CAT_ID   = 67906
ELEMENT_SET_NO = 999
REV_AT_EPOCH   = 243
BSTAR          = -.61977E-2
MEAN_MOTION_DOT = -.1498934E-1
MEAN_MOTION_DDOT = 0

CCSDS_OMM_VERS = 2.0
CREATION_DATE  = 
ORIGINATOR     = 

OBJECT_NAME    = STARLINK-36742
OBJECT_ID      = 2026-036D
CENTER_NAME    = EARTH
REF_FRAME      = TEME
TIME_SYSTEM    = UTC
MEAN_ELEMENT_THEORY = SGP/SGP4

EPOCH          = 2026-03-02T04:00:01.999584
MEAN_MOTION    = 15.87624536
ECCENTRICITY   = .0001691
INCLINATION    = 42.9950
RA_OF_ASC_NODE = 295.9279
ARG_OF_PERICENTER = 274.6585
MEAN_ANOMALY   = 256.9061

EPHEMERIS_TYPE = 0
CLASSIFICATION_TYPE = U
NORAD_CAT_ID   = 67907
ELEMENT_SET_NO = 999
REV_AT_EPOCH   = 243
BSTAR          = -.61134E-2
MEAN_MOTION_DOT = -.1463924E-1
MEAN_MOTION_DDOT = 0

