STARLINK-36877          
1 67896U 26035T   26061.16668981 -.00790578  22232-3 -12307-2 0  9999
2 67896  97.2780 352.9037 0001002  86.4488 149.6580 16.04109489  2547
STARLINK-36870          
1 67897U 26035U   26061.16668981 -.00758559  20690-3 -11520-2 0  9995
2 67897  97.2775 352.9078 0000887 105.9839 140.0764 16.04518824  2540
STARLINK-36810          
1 67898U 26035V   26061.16668981 -.00788214  22250-3 -11890-2 0  9991
2 67898  97.2773 352.9091 0000954 101.8615 146.9627 16.04635486  2543
STARLINK-36878          
1 67899U 26035W   26061.16668981 -.00765224  21117-3 -11385-2 0  9998
2 67899  97.2770 352.9114 0000991 109.8028 144.5000 16.04860919  2544
STARLINK-36361          
1 67900U 26035X   26061.16668981 -.00780614  21950-3 -11520-2 0  9997
2 67900  97.2769 352.9129 0000923  95.2965 162.0082 16.04998673  2548
STARLINK-36336          
1 67901U 26035Y   26061.16668981 -.00756394  20802-3 -10895-2 0  9995
2 67901  97.2769 352.9168 0000885 100.8327 165.5602 16.05394958  2592
STARLINK-36876          
1 67902U 26035Z   26061.16668981 -.00772070  21535-3 -11317-2 0  9999
2 67902  97.2773 352.9146 0000936 109.5758 150.3418 16.05109754  2545
STARLINK-36257          
1 67903U 26035AA  26061.16668981 -.00767550  21333-3 -11168-2 0  9997
2 67903  97.2769 352.9150 0000888 102.2175 160.4450 16.05230269  2594
STARLINK-36814          
1 67904U 26036A   26061.16668981 -.01511300  00000+0 -63786-2 0  9997
2 67904  42.9953 295.9517 0001721 274.9825 247.3372 15.87034420  2437
STARLINK-36729          
1 67905U 26036B   26061.16668981 -.01500501  00000+0 -62636-2 0  9992
2 67905  42.9949 295.9435 0001678 276.0032 249.3864 15.87236411  2438
STARLINK-36763          
1 67906U 26036C   26061.16668981 -.01498934  00000+0 -61977-2 0  9996
2 67906  42.9950 295.9355 0001644 280.4818 248.0754 15.87424431  2431
STARLINK-36742          
1 67907U 26036D   26061.16668981 -.01463924  00000+0 -61134-2 0  9993
2 67907  42.9950 295.9279 0001691 274.6585 256.9061 15.87624536  2432
